DMSP 5D-3 F16 (USA 172) 
1 28054U 03048A   26200.27807253 -.00000058  00000+0 -63701-5 0  9994
2 28054  98.9896 224.3176 0007995  61.1201 355.4876 14.14484735174029
METEOSAT-9 (MSG-2)      
1 28912U 05049B   26200.20164044  .00000114  00000+0  00000+0 0  9995
2 28912   9.4322  53.8482 0002395 357.9817   3.4307  1.00274349  7322
DMSP 5D-3 F17 (USA 191) 
1 29522U 06050A   26200.27257356 -.00000029  00000+0  75782-5 0  9993
2 29522  98.7389 206.1875 0009482 330.7112  29.3529 14.14996245 16962
FENGYUN 3A              
1 32958U 08026A   26200.11726326  .00000016  00000+0  28154-4 0  9991
2 32958  98.6886 140.3543 0009521  41.6681 318.5219 14.19576947939932
EWS-G3 (GOES 14)        
1 35491U 09033A   26200.28816167 -.00000365  00000+0  00000+0 0  9999
2 35491   1.7706  82.6459 0002084  38.9589  41.7132  1.00096361  6915
DMSP 5D-3 F18 (USA 210) 
1 35951U 09057A   26200.24595440  .00000165  00000+0  10850-3 0  9995
2 35951  98.9059 180.9490 0011476 154.3074 205.8671 14.14913464864126
EWS-G2 (GOES 15)        
1 36411U 10008A   26200.18219453  .00000017  00000+0  00000+0 0  9993
2 36411   1.3638  82.4174 0005382  53.7982 289.6154  1.00269378 59955
COMS 1                  
1 36744U 10032A   26200.05808856 -.00000217  00000+0  00000+0 0  9999
2 36744   4.8853  74.9724 0011366  15.0088 174.4874  0.99167035 51401
FENGYUN 3B              
1 37214U 10059A   26200.28237972  .00000295  00000+0  17568-3 0  9997
2 37214  98.9598 246.4303 0023170  95.6157  36.0065 14.14848628811966
SUOMI NPP               
1 37849U 11061A   26200.27066436  .00000017  00000+0  29051-4 0  9992
2 37849  98.7955 140.9287 0000950 194.8021 165.3127 14.19523074762990
METEOSAT-10 (MSG-3)     
1 38552U 12035B   26200.26389490 -.00000014  00000+0  00000+0 0  9999
2 38552   4.7459  60.8626 0001347  17.4483 313.7879  1.00272097 51174
METOP-B                 
1 38771U 12049A   26200.28783915  .00000039  00000+0  37449-4 0  9997
2 38771  98.6487 251.1437 0001227 232.8671 127.2395 14.21447111717824
INSAT-3D                
1 39216U 13038B   26200.21828051 -.00000345  00000+0  00000+0 0  9994
2 39216   2.0071  82.1413 0000978  44.6827  18.2505  1.00274238 47400
FENGYUN 3C              
1 39260U 13052A   26200.27085211  .00000017  00000+0  29971-4 0  9996
2 39260  98.5003 172.6764 0013532 293.3610  66.6141 14.15761213663109
METEOR-M 2              
1 40069U 14037A   26200.31374078  .00000197  00000+0  10955-3 0  9996
2 40069  98.5140 174.9183 0004888 313.2764  46.8006 14.21470901623885
HIMAWARI-8              
1 40267U 14060A   26200.29180168 -.00000281  00000+0  00000+0 0  9995
2 40267   0.0150  44.4025 0001221 118.6236  19.7636  1.00270473 43080
FENGYUN 2G              
1 40367U 14090A   26200.06978414 -.00000310  00000+0  00000+0 0  9996
2 40367   5.7178  72.4310 0003983 174.2103 174.7758  1.00279385 42312
METEOSAT-11 (MSG-4)     
1 40732U 15034A   26200.26571491  .00000055  00000+0  00000+0 0  9992
2 40732   3.2787  70.9023 0002066 355.0535 336.0201  1.00273131  7534
ELEKTRO-L 2             
1 41105U 15074A   26199.40558459 -.00000128  00000+0  00000+0 0  9995
2 41105   6.7707  70.1389 0000957 220.4397 137.1429  1.00272087 38810
SENTINEL-3A             
1 41335U 16011A   26200.26589979  .00000040  00000+0  34464-4 0  9998
2 41335  98.6234 267.1862 0001318  89.1446 270.9885 14.26740492542635
INSAT-3DR               
1 41752U 16054A   26200.15094622 -.00000082  00000+0  00000+0 0  9993
2 41752   0.0798  89.0558 0010409 180.5925 155.6214  1.00271239 36136
HIMAWARI-9              
1 41836U 16064A   26200.22044719 -.00000280  00000+0  00000+0 0  9997
2 41836   0.0408 241.0325 0002417 297.8000 338.2654  1.00271637 35537
GOES 16                 
1 41866U 16071A   26200.26046855 -.00000096  00000+0  00000+0 0  9990
2 41866   0.4144  85.4591 0000611  79.6812 120.9787  1.00271464 35426
FENGYUN 4A              
1 41882U 16077A   26199.21908161 -.00000366  00000+0  00000+0 0  9993
2 41882   2.3999  79.9326 0008408 159.8070 258.8550  1.00266586 35244
CYGFM05                 
1 41884U 16078A   26200.29479501  .00015181  00000+0  19629-3 0  9999
2 41884  34.9570  47.7531 0005345  82.1082 278.0249 15.57981690533767
CYGFM04                 
1 41885U 16078B   26199.84197242  .00020600  00000+0  21725-3 0  9999
2 41885  34.9330  16.7903 0004169 127.9660 232.1443 15.63234226533955
CYGFM02                 
1 41886U 16078C   26199.84260715  .00025345  00000+0  23388-3 0  9994
2 41886  34.9411  10.3456 0004900 129.8285 230.2874 15.66548596534135
CYGFM01                 
1 41887U 16078D   26200.26901651  .00015540  00000+0  19548-3 0  9994
2 41887  34.9401  48.7132 0005281  73.7293 286.4013 15.58704623533717
CYGFM08                 
1 41888U 16078E   26200.23505809  .00019160  00000+0  21529-3 0  9991
2 41888  34.9436  27.6362 0005985 113.9856 246.1496 15.61612662533982
CYGFM07                 
1 41890U 16078G   26200.19208979  .00019195  00000+0  21484-3 0  9995
2 41890  34.9453  16.2358 0004613 131.9873 228.1246 15.61721134534001
CYGFM03                 
1 41891U 16078H   26199.84370647  .00019457  00000+0  21801-3 0  9991
2 41891  34.9408  20.4894 0004297 109.4289 250.6902 15.61693427533925
