OBJECT_NAME,OBJECT_ID,EPOCH,MEAN_MOTION,ECCENTRICITY,INCLINATION,RA_OF_ASC_NODE,ARG_OF_PERICENTER,MEAN_ANOMALY,EPHEMERIS_TYPE,CLASSIFICATION_TYPE,NORAD_CAT_ID,ELEMENT_SET_NO,REV_AT_EPOCH,BSTAR,MEAN_MOTION_DOT,MEAN_MOTION_DDOT
DMSP 5D-3 F16 (USA 172),2003-048A,2026-07-19T06:40:25.466592,14.14484735,.00079954,98.9896,224.3176,61.1201,355.4876,0,U,28054,999,17402,-.6370058E-5,-.58E-6,0
METEOSAT-9 (MSG-2),2005-049B,2026-07-19T04:50:21.734016,1.00274349,.0002395,9.4322,53.8482,357.9817,3.4307,0,U,28912,999,732,0,.114E-5,0
DMSP 5D-3 F17 (USA 191),2006-050A,2026-07-19T06:32:30.355584,14.14996245,.00094829,98.7389,206.1875,330.7112,29.3529,0,U,29522,999,1696,.7578207E-5,-.29E-6,0
FENGYUN 3A,2008-026A,2026-07-19T02:48:51.545664,14.19576947,.00095215,98.6886,140.3543,41.6681,318.5219,0,U,32958,999,93993,.2815365E-4,.16E-6,0
EWS-G3 (GOES 14),2009-033A,2026-07-19T06:54:57.168288,1.00096361,.00020842,1.7706,82.6459,38.9589,41.7132,0,U,35491,999,691,0,-.365E-5,0
DMSP 5D-3 F18 (USA 210),2009-057A,2026-07-19T05:54:10.460160,14.14913464,.00114762,98.9059,180.9490,154.3074,205.8671,0,U,35951,999,86412,.10850111E-3,.165E-5,0
EWS-G2 (GOES 15),2010-008A,2026-07-19T04:22:21.607392,1.00269378,.0005382,1.3638,82.4174,53.7982,289.6154,0,U,36411,999,5995,0,.17E-6,0
COMS 1,2010-032A,2026-07-19T01:23:38.851584,0.99167035,.00113667,4.8853,74.9724,15.0088,174.4874,0,U,36744,999,5140,0,-.217E-5,0
FENGYUN 3B,2010-059A,2026-07-19T06:46:37.607808,14.14848628,.00231704,98.9598,246.4303,95.6157,36.0065,0,U,37214,999,81196,.17567757E-3,.295E-5,0
SUOMI NPP,2011-061A,2026-07-19T06:29:45.400704,14.19523074,.00009508,98.7955,140.9287,194.8021,165.3127,0,U,37849,999,76299,.29051488E-4,.17E-6,0
METEOSAT-10 (MSG-3),2012-035B,2026-07-19T06:20:00.519360,1.00272097,.00013472,4.7459,60.8626,17.4483,313.7879,0,U,38552,999,5117,0,-.14E-6,0
METOP-B,2012-049A,2026-07-19T06:54:29.302560,14.21447111,.00012275,98.6487,251.1437,232.8671,127.2395,0,U,38771,999,71782,.37449369E-4,.39E-6,0
INSAT-3D,2013-038B,2026-07-19T05:14:19.436064,1.00274238,.00009786,2.0071,82.1413,44.6827,18.2505,0,U,39216,999,4740,0,-.345E-5,0
FENGYUN 3C,2013-052A,2026-07-19T06:30:01.622304,14.15761213,.00135329,98.5003,172.6764,293.3610,66.6141,0,U,39260,999,66310,.29971008E-4,.17E-6,0
METEOR-M 2,2014-037A,2026-07-19T07:31:47.203392,14.21470901,.0004888,98.5140,174.9183,313.2764,46.8006,0,U,40069,999,62388,.10955075E-3,.197E-5,0
HIMAWARI-8,2014-060A,2026-07-19T07:00:11.665152,1.00270473,.00012213,0.0150,44.4025,118.6236,19.7636,0,U,40267,999,4308,0,-.281E-5,0
FENGYUN 2G,2014-090A,2026-07-19T01:40:29.349696,1.00279385,.00039834,5.7178,72.4310,174.2103,174.7758,0,U,40367,999,4231,0,-.31E-5,0
METEOSAT-11 (MSG-4),2015-034A,2026-07-19T06:22:37.768224,1.00273131,.00020666,3.2787,70.9023,355.0535,336.0201,0,U,40732,999,753,0,.55E-6,0
ELEKTRO-L 2,2015-074A,2026-07-18T09:44:02.508576,1.00272087,.00009578,6.7707,70.1389,220.4397,137.1429,0,U,41105,999,3881,0,-.128E-5,0
SENTINEL-3A,2016-011A,2026-07-19T06:22:53.741856,14.26740492,.0001318,98.6234,267.1862,89.1446,270.9885,0,U,41335,999,54263,.34464213E-4,.4E-6,0
INSAT-3DR,2016-054A,2026-07-19T03:37:21.753408,1.00271239,.00104091,0.0798,89.0558,180.5925,155.6214,0,U,41752,999,3613,0,-.82E-6,0
HIMAWARI-9,2016-064A,2026-07-19T05:17:26.637216,1.00271637,.00024171,0.0408,241.0325,297.8000,338.2654,0,U,41836,999,3553,0,-.28E-5,0
GOES 16,2016-071A,2026-07-19T06:15:04.482720,1.00271464,.00006115,0.4144,85.4591,79.6812,120.9787,0,U,41866,999,3542,0,-.96E-6,0
FENGYUN 4A,2016-077A,2026-07-18T05:15:28.651104,1.00266586,.00084089,2.3999,79.9326,159.8070,258.8550,0,U,41882,999,3524,0,-.366E-5,0
CYGFM05,2016-078A,2026-07-19T07:04:30.288864,15.57981690,.00053454,34.9570,47.7531,82.1082,278.0249,0,U,41884,999,53376,.19628795E-3,.15181E-3,0
CYGFM04,2016-078B,2026-07-18T20:12:26.417088,15.63234226,.00041699,34.9330,16.7903,127.9660,232.1443,0,U,41885,999,53395,.21724806E-3,.206E-3,0
CYGFM02,2016-078C,2026-07-18T20:13:21.257760,15.66548596,.00049004,34.9411,10.3456,129.8285,230.2874,0,U,41886,999,53413,.23387547E-3,.25345E-3,0
CYGFM01,2016-078D,2026-07-19T06:27:23.026464,15.58704623,.00052813,34.9401,48.7132,73.7293,286.4013,0,U,41887,999,53371,.1954773E-3,.1554E-3,0
CYGFM08,2016-078E,2026-07-19T05:38:29.018976,15.61612662,.00059855,34.9436,27.6362,113.9856,246.1496,0,U,41888,999,53398,.21528604E-3,.1916E-3,0
CYGFM07,2016-078G,2026-07-19T04:36:36.557856,15.61721134,.00046132,34.9453,16.2358,131.9873,228.1246,0,U,41890,999,53400,.21484062E-3,.19195E-3,0
CYGFM03,2016-078H,2026-07-18T20:14:56.239008,15.61693427,.00042974,34.9408,20.4894,109.4289,250.6902,0,U,41891,999,53392,.21801022E-3,.19457E-3,0
